[{"line1":"1 10917U 78053A   22221.48512302  .00000066  00000-0  53211-4 0  9993","line2":"2 10917  82.9159  45.4382 0035364 289.2807  98.9260 13.75327265218429"},{"line1":"1 10918U 78053B   22221.39793670  .00000001  00000-0 -14792-4 0  9994","line2":"2 10918  82.9164   4.8583 0030763 146.0841 242.9397 13.77325416221260"},{"line1":"1 10925U 78055A   22220.57898581  .00000473  00000-0  00000-0 0  9995","line2":"2 10925  63.3505  40.7684 7262166 280.6655  11.7642  2.00693996323724"},{"line1":"1 10930U 78056A   22221.55125097 -.00000034  00000-0 -14359-3 0  9996","line2":"2 10930  74.0272 158.8828 0048564 311.0302 162.9908 12.37789942995970"},{"line1":"1 10931U 78056B   22221.51113979  .00000006  00000-0  15782-3 0  9997","line2":"2 10931  74.0257  53.5717 0033149 190.7752 197.5862 12.40463081   254"},{"line1":"1 10932U 78056C   22221.26595882 -.00000020  00000-0 -36511-4 0  9999","line2":"2 10932  74.0292 322.1097 0026947  61.9507 326.4841 12.42785468  3874"},{"line1":"1 10933U 78056D   22221.42418256  .00000005  00000-0  14678-3 0  9997","line2":"2 10933  74.0236 223.6021 0017876 283.7918 228.2003 12.45272145  7976"},{"line1":"1 10934U 78056E   22221.20895000 -.00000024  00000-0 -57705-4 0  9992","line2":"2 10934  74.0270 131.7758 0021251 146.1606   6.9475 12.47579676 11676"},{"line1":"1 10935U 78056F   22221.45075299  .00000001  00000-0  10927-3 0  9997","line2":"2 10935  74.0268  39.9201 0029277  17.9877 356.6562 12.49876497 15430"},{"line1":"1 10936U 78056G   22221.28290750 -.00000013  00000-0  23153-4 0  9990","line2":"2 10936  74.0285 309.7229 0041457 269.0684 119.2471 12.52126275 19003"},{"line1":"1 10937U 78056H   22221.43670946 -.00000021  00000-0 -33226-4 0  9999","line2":"2 10937  74.0236 213.0693 0048804 145.2187 215.2073 12.54522846 22878"},{"line1":"1 10938U 78056J   22221.29431598  .00000075  00000-0  82677-3 0  9992","line2":"2 10938  74.0199  65.4209 0132935 330.4602 203.4135 12.21517024969726"},{"line1":"1 10942U 78058B   22220.44266278 -.00000270  00000-0  00000-0 0  9991","line2":"2 10942   8.8979  24.2853 1475064  99.7792 277.3237  0.99626095 12733"},{"line1":"1 10949U 78055E   22220.91864807 -.00001361  00000-0 -15669-2 0  9991","line2":"2 10949  63.0666  68.0551 7357986 278.0078  11.8154  1.97083354212436"},{"line1":"1 10953U 78062A   22220.69028302 -.00000215  00000-0  00000+0 0  9997","line2":"2 10953  10.0651 311.0532 0003684 158.1968 209.2276  0.99360024114600"},{"line1":"1 10954U 78062B   22221.07542306  .00000637  00000-0  16743-3 0  9998","line2":"2 10954  28.4267  94.5042 0697239 115.6437 251.7784 13.51239140170648"},{"line1":"1 10961U 78063A   22221.76886537  .00000080  00000-0  35878-4 0  9993","line2":"2 10961  74.0768 150.3401 0017268 304.0512  55.9001 14.36625962311025"},{"line1":"1 10962U 78063B   22221.35264770  .00000161  00000-0  57729-4 0  9997","line2":"2 10962  74.0812 349.2977 0024360 129.1749 231.1577 14.41355664316387"},{"line1":"1 10967U 78064A   22221.40694639  .00000054  00000-0  55893-4 0  9991","line2":"2 10967 107.9936 266.7855 0001385 240.0811 120.0196 14.44040740317527"},{"line1":"1 10970U 78066A   22221.39357223 -.00000177  00000-0  00000-0 0  9993","line2":"2 10970  62.4197 173.7986 7269959  34.7772 355.8369  2.00763286323153"},{"line1":"1 10974U 78067B   22221.36244210  .00000281  00000-0  28233-4 0  9993","line2":"2 10974  82.4828 189.1536 0015977 232.1635 127.8137 14.87581095365752"},{"line1":"1 10975U 78068A   22221.61902619 -.00000118  00000-0  00000+0 0  9994","line2":"2 10975  12.0765 325.6244 0017725 279.0886 122.0077  0.99200801122051"},{"line1":"1 10976U 78068B   22221.26854818  .00000048  00000-0  46660-3 0  9990","line2":"2 10976  21.6890 274.6640 7166815 330.3121 276.1820  2.22312593354835"},{"line1":"1 10981U 78071A   22220.85535647  .00000088  00000-0  00000-0 0  9999","line2":"2 10981   9.0264 301.1684 0000850 291.6050  71.7930  0.99376721160009"},{"line1":"1 10987U 78073A   22221.36715896  .00000153  00000-0  00000-0 0  9993","line2":"2 10987   8.3181 295.8809 0007269 358.9607 192.8834  1.00275253105489"},{"line1":"1 10990U 74089EK  22221.38844374 -.00000032  00000-0  54586-4 0  9995","line2":"2 10990 101.1361 261.2515 0074412  16.9509 353.4701 12.65019439203293"},{"line1":"1 10991U 78074A   22221.34759759  .00000027  00000-0  12324-4 0  9999","line2":"2 10991  82.9395 343.8687 0026868   8.1162  19.7861 13.76496508211415"},{"line1":"1 10992U 78074B   22221.20923010  .00000043  00000-0  28092-4 0  9995","line2":"2 10992  82.9353 314.0266 0017907 260.3027 125.7769 13.77985039393407"},{"line1":"1 10998U 78066D   22221.24856153 -.00001501  00000-0 -49403-2 0  9998","line2":"2 10998  62.5103 160.6300 7367982  34.3343 356.1093  1.99934453 64941"},{"line1":"1 11028U 78087B   22221.33126707  .00014276  00000-0  83171-3 0  9993","line2":"2 11028  31.2417 190.6989 4234600 260.7688  50.3794  7.01933464624153"},{"line1":"1 11042U 78091A   22221.55221333  .00000005  00000-0  13348-3 0  9993","line2":"2 11042  74.0346 280.9569 0037653   6.2894  61.3182 12.53166133  5902"},{"line1":"1 11044U 78091B   22221.38101872 -.00000025  00000-0 -52746-4 0  9991","line2":"2 11044  74.0344 180.9896 0049662 242.2588 287.2810 12.55670864  9903"},{"line1":"1 11045U 78091C   22221.41108191 -.00000014  00000-0  11178-4 0  9998","line2":"2 11045  74.0372  14.8952 0024154 114.8354 273.6812 12.50818272  2194"},{"line1":"1 11046U 78091D   22221.41374112 -.00000016  00000-0 -67788-7 0  9991","line2":"2 11046  74.0351 111.5996 0013235 244.0995 230.0964 12.48378596998219"},{"line1":"1 11047U 78091E   22221.39957457 -.00000002  00000-0  92670-4 0  9997","line2":"2 11047  74.0331 209.5945 0005366  74.3229  77.2895 12.45902731585497"},{"line1":"1 11048U 78091F   22221.31162031 -.00000029  00000-0 -10926-3 0  9999","line2":"2 11048  74.0359 159.3838 0045734 115.5535  40.7716 12.38000776503297"},{"line1":"1 11049U 78091G   22221.50307880  .00000004  00000-0  14300-3 0  9995","line2":"2 11049  74.0347  47.7771 0030508 352.6112  22.1135 12.40851240986443"},{"line1":"1 11050U 78091H   22221.27463356 -.00000015  00000-0  72860-5 0  9992","line2":"2 11050  74.0374 312.3117 0019913 223.4479 166.0691 12.43295008990085"},{"line1":"1 11051U 78091J   22221.17552130 -.00000015  00000-0 -39513-5 0  9990","line2":"2 11051  74.0423 121.5299 0136289 160.2383 352.6874 12.20479178953868"},{"line1":"1 11054U 78093A   22221.09700668 -.00000080  00000-0  00000-0 0  9992","line2":"2 11054  63.8550 341.7000 0094828 230.1354 127.2165  1.93504227313424"},{"line1":"1 11057U 78095A   22220.80300524  .00000159  00000-0  10052-2 0  9998","line2":"2 11057  63.1693  19.9594 5793168 310.7087  11.7268  4.09853492385876"},{"line1":"1 11060U 78096A   22221.39444861  .00000088  00000-0  63319-4 0  9998","line2":"2 11060  98.6319 273.7251 0010404 357.6528   2.4598 14.18403565479115"},{"line1":"1 11061U 78096B   22221.53030896  .00010018  00000-0  81781-3 0  9990","line2":"2 11061  98.8582 306.4809 0002584  31.8416 328.2959 14.99661278322955"},{"line1":"1 11062U 78096C   22221.83945945  .00017013  00000-0  10960-2 0  9996","line2":"2 11062  98.8300 349.1495 0014243  57.3194 302.9402 15.08349630325748"},{"line1":"1 11076U 78083D   22221.15308302  .00000383  00000-0  00000-0 0  9996","line2":"2 11076  65.5788 205.2457 6252826  39.7166 352.3392  1.99121748211883"},{"line1":"1 11079U 78095E   22217.80982896  .00000185  00000-0  00000-0 0  9995","line2":"2 11079  63.2568 140.6660 6942091 278.2500  14.6591  2.23589745 61006"},{"line1":"1 11080U 78098A   22221.27145136 -.00000015  00000-0  29174-4 0  9994","line2":"2 11080  99.6506  58.5293 0009425  37.5894 322.5917 13.84346971211880"},{"line1":"1 11081U 78098B   22221.46797417 -.00000026  00000-0  16825-4 0  9992","line2":"2 11081  99.3727 133.5111 0028408 312.3475  47.5274 13.85745581 53039"},{"line1":"1 11084U 78100A   22221.17789654 -.00000023  00000-0 -40639-3 0  9998","line2":"2 11084  82.5482 118.6710 0011325 263.0350 250.9487 11.96760304912824"},{"line1":"1 11085U 78100B   22221.47339098  .00000001  00000-0 -93507-4 0  9993","line2":"2 11085  82.5482 122.5591 0012015 272.4914 261.8591 11.96552508912454"},{"line1":"1 11086U 78100C   22221.15849788 -.00000012  00000-0 -26258-3 0  9992","line2":"2 11086  82.5493 120.8224 0011309 264.1439 250.2115 11.96735743912476"},{"line1":"1 11087U 78100D   22221.16631458 -.00000026  00000-0 -44231-3 0  9993","line2":"2 11087  82.5480 113.4733 0008425 240.6460 289.9704 11.97027440913286"},{"line1":"1 11111U 78105A   22221.54481229  .00000069  00000-0  33607-4 0  9998","line2":"2 11111  74.0266  35.6472 0015762 130.9299 229.3220 14.34370282286205"},{"line1":"1 11112U 78105B   22221.53891521  .00000082  00000-0  36104-4 0  9998","line2":"2 11112  74.0322 308.1035 0033738   5.1613 354.9881 14.37416513289750"},{"line1":"1 11113U 78105C   22221.40034683  .00001537  00000-0  26991-3 0  9991","line2":"2 11113  74.0280   3.1676 0007800 207.6397 152.4360 14.68589794311997"},{"line1":"1 11114U 78105D   22221.39994456  .00001906  00000-0  27073-3 0  9995","line2":"2 11114  74.0113 107.4382 0004697 352.9301   7.1806 14.77683407319226"},{"line1":"1 11115U 78106A   22221.50673678 -.00000054  00000-0  00000-0 0  9992","line2":"2 11115  11.7264 325.0345 0001296 200.6252 189.1275  0.98482834641357"},{"line1":"1 11128U 78109A   22221.50309325 -.00000028  00000-0 -70539-4 0  9994","line2":"2 11128  74.0174 147.2279 0058318   6.2641 109.6353 12.55930634  2382"},{"line1":"1 11129U 78109B   22221.50095181  .00000013  00000-0  17909-3 0  9990","line2":"2 11129  74.0136 236.4697 0048735 118.7364 314.9573 12.53693349998880"},{"line1":"1 11130U 78109C   22221.30216979 -.00000019  00000-0 -20144-4 0  9994","line2":"2 11130  74.0196 325.5714 0037441 222.6043 167.1077 12.51464784995352"},{"line1":"1 11131U 78109D   22221.52040782  .00000003  00000-0  12844-3 0  9994","line2":"2 11131  74.0158  51.7135 0027528 330.5214  58.1141 12.49279877991924"}]